QIANFAN-209             
1 69808U 26153J   26204.83379709  .00000187  00000+0  81429-4 0  9991
2 69808  88.9931 358.0577 0008613 149.9391 210.2295 14.19691915  2773
QIANFAN-210             
1 69809U 26153K   26204.82843568  .00000185  00000+0  80417-4 0  9994
2 69809  88.9932 358.0571 0008783 152.1036 208.0627 14.19937949  2773
QIANFAN-211             
1 69810U 26153L   26204.82723117  .00000165  00000+0  70578-4 0  9998
2 69810  88.9931 358.0567 0008172 150.8131 209.3518 14.20224811  2774
QIANFAN-212             
1 69811U 26153M   26204.82018654  .00000097  00000+0  38138-4 0  9992
2 69811  88.9931 358.0556 0009328 155.5388 204.6247 14.20820378  2770
QIANFAN-213             
1 69812U 26153N   26204.81835399  .00000097  00000+0  37793-4 0  9991
2 69812  88.9931 358.0553 0008238 151.2431 208.9216 14.21099804  2775
QIANFAN-214             
1 69813U 26153P   26204.87438896  .00000176  00000+0  68468-4 0  9990
2 69813  88.9931 358.0452 0008907 155.9848 204.1762 14.25492977  2787
QIANFAN-215             
1 69814U 26153Q   26204.87045235  .00000131  00000+0  48175-4 0  9996
2 69814  88.9930 358.0442 0008933 157.6395 202.5190 14.26680799  2780
QIANFAN-216             
1 69815U 26153R   26204.87044337  .00000208  00000+0  80061-4 0  9994
2 69815  88.9931 358.0445 0009170 158.0398 202.1191 14.26677942  2780
QIANFAN-217             
1 69816U 26153S   26204.86963520  .00000113  00000+0  40722-4 0  9993
2 69816  88.9930 358.0441 0008676 155.6160 204.5446 14.26769021  2785
QIANFAN-218             
1 69817U 26153T   26204.86905911  .00000181  00000+0  68795-4 0  9999
2 69817  88.9932 358.0447 0008438 153.1554 207.0078 14.26812985  2787
QIANFAN-219             
1 69848U 26155A   26204.78822269  .00000194  00000+0  78311-4 0  9999
2 69848  89.0060  59.9688 0031245 192.7809 167.2595 14.23742720  2601
QIANFAN-220             
1 69849U 26155B   26204.83631748  .00000185  00000+0  83830-4 0  9998
2 69849  89.0060  59.9759 0030307 193.2652 166.7743 14.17599523  2604
QIANFAN-221             
1 69850U 26155C   26204.78039840  .00000217  00000+0  83384-4 0  9999
2 69850  89.0060  59.9675 0031313 194.2663 165.7650 14.26649962  2603
QIANFAN-222             
1 69851U 26155D   26204.82664179  .00000196  00000+0  87285-4 0  9994
2 69851  89.0061  59.9747 0029493 194.4057 165.6295 14.18563989  2609
QIANFAN-223             
1 69852U 26155E   26204.82099856  .00000202  00000+0  90204-4 0  9992
2 69852  89.0063  59.9742 0029378 193.8902 166.1482 14.18586582  2609
QIANFAN-224             
1 69853U 26155F   26204.81426972  .00000206  00000+0  89447-4 0  9996
2 69853  89.0048  59.9708 0030419 194.2966 165.7367 14.20221049  2602
